[{"OBJECT_NAME":"SL-8 R/B","OBJECT_ID":"1991-006B","EPOCH":"2026-03-18T00:00:13.359168","MEAN_MOTION":13.7749537,"ECCENTRICITY":0.00225727,"INCLINATION":82.9459,"RA_OF_ASC_NODE":163.8679,"ARG_OF_PERICENTER":15.6453,"MEAN_ANOMALY":157.5489,"EPHEMERIS_TYPE":0,"CLASSIFICATION_TYPE":"U","NORAD_CAT_ID":21088,"ELEMENT_SET_NO":999,"REV_AT_EPOCH":76521,"BSTAR":6.5423846e-5,"MEAN_MOTION_DOT":8.0e-7,"MEAN_MOTION_DDOT":0},{"OBJECT_NAME":"OKEAN-3","OBJECT_ID":"1991-039A","EPOCH":"2026-03-18T02:58:12.740448","MEAN_MOTION":15.04864744,"ECCENTRICITY":0.00130797,"INCLINATION":82.5197,"RA_OF_ASC_NODE":328.674,"ARG_OF_PERICENTER":305.7179,"MEAN_ANOMALY":54.283,"EPHEMERIS_TYPE":0,"CLASSIFICATION_TYPE":"U","NORAD_CAT_ID":21397,"ELEMENT_SET_NO":999,"REV_AT_EPOCH":86630,"BSTAR":0.00014739936,"MEAN_MOTION_DOT":2.114e-5,"MEAN_MOTION_DDOT":0},{"OBJECT_NAME":"COSMOS 2151","OBJECT_ID":"1991-042A","EPOCH":"2026-03-18T05:18:41.928768","MEAN_MOTION":15.00140618,"ECCENTRICITY":0.00134399,"INCLINATION":82.4931,"RA_OF_ASC_NODE":75.4435,"ARG_OF_PERICENTER":37.5128,"MEAN_ANOMALY":322.7031,"EPHEMERIS_TYPE":0,"CLASSIFICATION_TYPE":"U","NORAD_CAT_ID":21422,"ELEMENT_SET_NO":999,"REV_AT_EPOCH":86447,"BSTAR":0.0001572562,"MEAN_MOTION_DOT":1.992e-5,"MEAN_MOTION_DDOT":0},{"OBJECT_NAME":"SL-14 R/B","OBJECT_ID":"1991-042B","EPOCH":"2026-03-17T20:39:34.523136","MEAN_MOTION":14.81838107,"ECCENTRICITY":0.00162884,"INCLINATION":82.4938,"RA_OF_ASC_NODE":212.5205,"ARG_OF_PERICENTER":210.0281,"MEAN_ANOMALY":150.0001,"EPHEMERIS_TYPE":0,"CLASSIFICATION_TYPE":"U","NORAD_CAT_ID":21423,"ELEMENT_SET_NO":999,"REV_AT_EPOCH":85428,"BSTAR":5.232178e-5,"MEAN_MOTION_DOT":4.37e-6,"MEAN_MOTION_DDOT":0},{"OBJECT_NAME":"ERS-1","OBJECT_ID":"1991-050A","EPOCH":"2026-03-18T07:36:01.272960","MEAN_MOTION":14.39455853,"ECCENTRICITY":0.00321001,"INCLINATION":98.7875,"RA_OF_ASC_NODE":95.768,"ARG_OF_PERICENTER":174.7549,"MEAN_ANOMALY":185.398,"EPHEMERIS_TYPE":0,"CLASSIFICATION_TYPE":"U","NORAD_CAT_ID":21574,"ELEMENT_SET_NO":999,"REV_AT_EPOCH":81697,"BSTAR":0.00010220473,"MEAN_MOTION_DOT":2.74e-6,"MEAN_MOTION_DDOT":0},{"OBJECT_NAME":"ARIANE 40 R/B","OBJECT_ID":"1991-050F","EPOCH":"2026-03-18T03:20:15.839808","MEAN_MOTION":14.4289986,"ECCENTRICITY":0.00040909,"INCLINATION":98.1994,"RA_OF_ASC_NODE":129.0578,"ARG_OF_PERICENTER":62.7702,"MEAN_ANOMALY":297.3905,"EPHEMERIS_TYPE":0,"CLASSIFICATION_TYPE":"U","NORAD_CAT_ID":21610,"ELEMENT_SET_NO":999,"REV_AT_EPOCH":82021,"BSTAR":9.8487453e-5,"MEAN_MOTION_DOT":2.87e-6,"MEAN_MOTION_DDOT":0},{"OBJECT_NAME":"INTERCOSMOS 25","OBJECT_ID":"1991-086A","EPOCH":"2026-03-18T01:52:10.333632","MEAN_MOTION":12.12029771,"ECCENTRICITY":0.14868269,"INCLINATION":82.6039,"RA_OF_ASC_NODE":304.9385,"ARG_OF_PERICENTER":98.8616,"MEAN_ANOMALY":278.3154,"EPHEMERIS_TYPE":0,"CLASSIFICATION_TYPE":"U","NORAD_CAT_ID":21819,"ELEMENT_SET_NO":999,"REV_AT_EPOCH":49770,"BSTAR":0.00029697082,"MEAN_MOTION_DOT":1.553e-5,"MEAN_MOTION_DDOT":0},{"OBJECT_NAME":"SL-8 R/B","OBJECT_ID":"1992-008B","EPOCH":"2026-03-18T00:31:41.293344","MEAN_MOTION":13.75969659,"ECCENTRICITY":0.00358304,"INCLINATION":82.9222,"RA_OF_ASC_NODE":261.5781,"ARG_OF_PERICENTER":110.7617,"MEAN_ANOMALY":2.1386,"EPHEMERIS_TYPE":0,"CLASSIFICATION_TYPE":"U","NORAD_CAT_ID":21876,"ELEMENT_SET_NO":999,"REV_AT_EPOCH":71056,"BSTAR":-1.2758593e-5,"MEAN_MOTION_DOT":3.0e-8,"MEAN_MOTION_DDOT":0},{"OBJECT_NAME":"SL-8 R/B","OBJECT_ID":"1992-020B","EPOCH":"2026-03-17T22:25:31.198368","MEAN_MOTION":13.75550102,"ECCENTRICITY":0.00275304,"INCLINATION":82.9323,"RA_OF_ASC_NODE":147.6408,"ARG_OF_PERICENTER":274.6975,"MEAN_ANOMALY":258.4512,"EPHEMERIS_TYPE":0,"CLASSIFICATION_TYPE":"U","NORAD_CAT_ID":21938,"ELEMENT_SET_NO":999,"REV_AT_EPOCH":70226,"BSTAR":4.2891512e-5,"MEAN_MOTION_DOT":5.6e-7,"MEAN_MOTION_DDOT":0},{"OBJECT_NAME":"USA 81","OBJECT_ID":"1992-023A","EPOCH":"2026-03-18T02:40:40.634688","MEAN_MOTION":14.3237076,"ECCENTRICITY":0.00022285,"INCLINATION":85.0068,"RA_OF_ASC_NODE":126.582,"ARG_OF_PERICENTER":71.3316,"MEAN_ANOMALY":288.8118,"EPHEMERIS_TYPE":0,"CLASSIFICATION_TYPE":"U","NORAD_CAT_ID":21949,"ELEMENT_SET_NO":999,"REV_AT_EPOCH":9599,"BSTAR":5.9840536e-5,"MEAN_MOTION_DOT":1.82e-6,"MEAN_MOTION_DDOT":0},{"OBJECT_NAME":"COSMOS 2219","OBJECT_ID":"1992-076A","EPOCH":"2026-03-18T03:37:29.439552","MEAN_MOTION":14.14093504,"ECCENTRICITY":0.00184873,"INCLINATION":71.0641,"RA_OF_ASC_NODE":0.3816,"ARG_OF_PERICENTER":195.2338,"MEAN_ANOMALY":164.8231,"EPHEMERIS_TYPE":0,"CLASSIFICATION_TYPE":"U","NORAD_CAT_ID":22219,"ELEMENT_SET_NO":999,"REV_AT_EPOCH":71957,"BSTAR":-2.8667251e-5,"MEAN_MOTION_DOT":-1.02e-6,"MEAN_MOTION_DDOT":0},{"OBJECT_NAME":"SL-16 R/B","OBJECT_ID":"1992-076B","EPOCH":"2026-03-18T07:24:47.525760","MEAN_MOTION":14.16860107,"ECCENTRICITY":0.0010594,"INCLINATION":71.0006,"RA_OF_ASC_NODE":170.2191,"ARG_OF_PERICENTER":80.454,"MEAN_ANOMALY":336.2949,"EPHEMERIS_TYPE":0,"CLASSIFICATION_TYPE":"U","NORAD_CAT_ID":22220,"ELEMENT_SET_NO":999,"REV_AT_EPOCH":72305,"BSTAR":0.00013027534,"MEAN_MOTION_DOT":2.14e-6,"MEAN_MOTION_DDOT":0},{"OBJECT_NAME":"COSMOS 2221","OBJECT_ID":"1992-080A","EPOCH":"2026-03-18T06:20:53.000448","MEAN_MOTION":14.9623525,"ECCENTRICITY":0.00147781,"INCLINATION":82.5002,"RA_OF_ASC_NODE":270.8651,"ARG_OF_PERICENTER":158.7326,"MEAN_ANOMALY":201.4514,"EPHEMERIS_TYPE":0,"CLASSIFICATION_TYPE":"U","NORAD_CAT_ID":22236,"ELEMENT_SET_NO":999,"REV_AT_EPOCH":78207,"BSTAR":0.00016396833,"MEAN_MOTION_DOT":1.879e-5,"MEAN_MOTION_DDOT":0},{"OBJECT_NAME":"SL-16 R/B","OBJECT_ID":"1992-093B","EPOCH":"2026-03-18T03:34:55.568928","MEAN_MOTION":14.15447733,"ECCENTRICITY":0.00062865,"INCLINATION":71.0239,"RA_OF_ASC_NODE":346.5088,"ARG_OF_PERICENTER":285.1214,"MEAN_ANOMALY":74.9214,"EPHEMERIS_TYPE":0,"CLASSIFICATION_TYPE":"U","NORAD_CAT_ID":22285,"ELEMENT_SET_NO":999,"REV_AT_EPOCH":71435,"BSTAR":0.00010487435,"MEAN_MOTION_DOT":1.57e-6,"MEAN_MOTION_DDOT":0},{"OBJECT_NAME":"COSMOS 2228","OBJECT_ID":"1992-094A","EPOCH":"2026-03-18T06:36:13.150080","MEAN_MOTION":14.9723459,"ECCENTRICITY":0.00166093,"INCLINATION":82.5168,"RA_OF_ASC_NODE":229.0893,"ARG_OF_PERICENTER":273.4478,"MEAN_ANOMALY":86.4845,"EPHEMERIS_TYPE":0,"CLASSIFICATION_TYPE":"U","NORAD_CAT_ID":22286,"ELEMENT_SET_NO":999,"REV_AT_EPOCH":77734,"BSTAR":0.00019932784,"MEAN_MOTION_DOT":2.338e-5,"MEAN_MOTION_DDOT":0},{"OBJECT_NAME":"SL-16 R/B","OBJECT_ID":"1993-016B","EPOCH":"2026-03-18T01:10:45.699456","MEAN_MOTION":14.15308161,"ECCENTRICITY":0.0012272,"INCLINATION":71.0083,"RA_OF_ASC_NODE":197.6246,"ARG_OF_PERICENTER":303.2524,"MEAN_ANOMALY":56.7422,"EPHEMERIS_TYPE":0,"CLASSIFICATION_TYPE":"U","NORAD_CAT_ID":22566,"ELEMENT_SET_NO":999,"REV_AT_EPOCH":70335,"BSTAR":-0.00010359763,"MEAN_MOTION_DOT":-2.5e-6,"MEAN_MOTION_DDOT":0},{"OBJECT_NAME":"COSMOS 2242","OBJECT_ID":"1993-024A","EPOCH":"2026-03-17T23:50:45.550464","MEAN_MOTION":14.96583127,"ECCENTRICITY":0.0014921,"INCLINATION":82.5152,"RA_OF_ASC_NODE":258.7714,"ARG_OF_PERICENTER":278.4646,"MEAN_ANOMALY":81.4885,"EPHEMERIS_TYPE":0,"CLASSIFICATION_TYPE":"U","NORAD_CAT_ID":22626,"ELEMENT_SET_NO":999,"REV_AT_EPOCH":78163,"BSTAR":0.00015919219,"MEAN_MOTION_DOT":1.841e-5,"MEAN_MOTION_DDOT":0}]
